STARLINK-35580          
1 66155U 25240K   25325.52671652 -.00365088  00000+0 -74119-2 0  9992
2 66155  53.1592 206.2454 0002451 341.9517  18.1403 15.47126597  5419
STARLINK-35621          
1 66156U 25240L   25325.66672454  .00057040  00000+0  14280-2 0  9996
2 66156  53.1597 205.7510 0001190  75.3415 257.8302 15.39563996  5516
STARLINK-35594          
1 66157U 25240M   25325.07392767  .00049496  00000+0  89165-3 0  9999
2 66157  53.1594 208.3964 0001235  84.7468 275.3682 15.49331849  5346
STARLINK-35587          
1 66158U 25240N   25325.10128716  .00064512  00000+0  16077-2 0  9992
2 66158  53.1589 208.5688 0001014 101.4203 258.6916 15.39647841  5340
STARLINK-35586          
1 66159U 25240P   25325.07324118  .00079310  00000+0  14180-2 0  9998
2 66159  53.1592 208.3917 0001169  84.0238 276.0904 15.49340751  5345
STARLINK-35636          
1 66160U 25240Q   25325.10162499  .00058565  00000+0  14619-2 0  9992
2 66160  53.1590 208.5701 0001257  94.6393 265.4755 15.39640891  5348
STARLINK-35635          
1 66161U 25240R   25324.97643887  .00033362  00000+0  83990-3 0  9999
2 66161  53.1588 209.2108 0001163  98.1890 261.9246 15.39637357  5329
STARLINK-35633          
1 66162U 25240S   25325.04146186  .00029733  00000+0  54026-3 0  9994
2 66162  53.1592 208.1862 0000884  87.5865 272.5245 15.49327880  5340
STARLINK-35607          
1 66163U 25240T   25325.04111788  .00064646  00000+0  11595-2 0  9990
2 66163  53.1594 208.1852 0001019 108.3280 251.7840 15.49340842  5349
STARLINK-35614          
1 66164U 25240U   25325.10493888  .00033155  00000+0  60105-3 0  9995
2 66164  53.1591 207.8709 0001185  81.6004 278.5139 15.49337829  5355
STARLINK-35575          
1 66165U 25240V   25325.04077405  .00050123  00000+0  90209-3 0  9994
2 66165  53.1594 208.1816 0001127  92.8759 267.2379 15.49353278  5345
STARLINK-35624          
1 66166U 25240W   25325.10425315  .00065444  00000+0  11724-2 0  9995
2 66166  53.1596 207.8675 0000810 108.7179 251.3918 15.49369078  5357
