CCSDS_OMM_VERS = 2.0
CREATION_DATE  = 
ORIGINATOR     = 

OBJECT_NAME    = STARLINK-35580
OBJECT_ID      = 2025-240K
CENTER_NAME    = EARTH
REF_FRAME      = TEME
TIME_SYSTEM    = UTC
MEAN_ELEMENT_THEORY = SGP/SGP4

EPOCH          = 2025-11-21T12:38:28.307328
MEAN_MOTION    = 15.47126597
ECCENTRICITY   = .0002451
INCLINATION    = 53.1592
RA_OF_ASC_NODE = 206.2454
ARG_OF_PERICENTER = 341.9517
MEAN_ANOMALY   = 18.1403

EPHEMERIS_TYPE = 0
CLASSIFICATION_TYPE = U
NORAD_CAT_ID   = 66155
ELEMENT_SET_NO = 999
REV_AT_EPOCH   = 541
BSTAR          = -.74119E-2
MEAN_MOTION_DOT = -.365088E-2
MEAN_MOTION_DDOT = 0

CCSDS_OMM_VERS = 2.0
CREATION_DATE  = 
ORIGINATOR     = 

OBJECT_NAME    = STARLINK-35621
OBJECT_ID      = 2025-240L
CENTER_NAME    = EARTH
REF_FRAME      = TEME
TIME_SYSTEM    = UTC
MEAN_ELEMENT_THEORY = SGP/SGP4

EPOCH          = 2025-11-21T16:00:05.000256
MEAN_MOTION    = 15.39563996
ECCENTRICITY   = .000119
INCLINATION    = 53.1597
RA_OF_ASC_NODE = 205.7510
ARG_OF_PERICENTER = 75.3415
MEAN_ANOMALY   = 257.8302

EPHEMERIS_TYPE = 0
CLASSIFICATION_TYPE = U
NORAD_CAT_ID   = 66156
ELEMENT_SET_NO = 999
REV_AT_EPOCH   = 551
BSTAR          = .1428E-2
MEAN_MOTION_DOT = .5704E-3
MEAN_MOTION_DDOT = 0

CCSDS_OMM_VERS = 2.0
CREATION_DATE  = 
ORIGINATOR     = 

OBJECT_NAME    = STARLINK-35594
OBJECT_ID      = 2025-240M
CENTER_NAME    = EARTH
REF_FRAME      = TEME
TIME_SYSTEM    = UTC
MEAN_ELEMENT_THEORY = SGP/SGP4

EPOCH          = 2025-11-21T01:46:27.350688
MEAN_MOTION    = 15.49331849
ECCENTRICITY   = .0001235
INCLINATION    = 53.1594
RA_OF_ASC_NODE = 208.3964
ARG_OF_PERICENTER = 84.7468
MEAN_ANOMALY   = 275.3682

EPHEMERIS_TYPE = 0
CLASSIFICATION_TYPE = U
NORAD_CAT_ID   = 66157
ELEMENT_SET_NO = 999
REV_AT_EPOCH   = 534
BSTAR          = .89165E-3
MEAN_MOTION_DOT = .49496E-3
MEAN_MOTION_DDOT = 0

CCSDS_OMM_VERS = 2.0
CREATION_DATE  = 
ORIGINATOR     = 

OBJECT_NAME    = STARLINK-35587
OBJECT_ID      = 2025-240N
CENTER_NAME    = EARTH
REF_FRAME      = TEME
TIME_SYSTEM    = UTC
MEAN_ELEMENT_THEORY = SGP/SGP4

EPOCH          = 2025-11-21T02:25:51.210624
MEAN_MOTION    = 15.39647841
ECCENTRICITY   = .0001014
INCLINATION    = 53.1589
RA_OF_ASC_NODE = 208.5688
ARG_OF_PERICENTER = 101.4203
MEAN_ANOMALY   = 258.6916

EPHEMERIS_TYPE = 0
CLASSIFICATION_TYPE = U
NORAD_CAT_ID   = 66158
ELEMENT_SET_NO = 999
REV_AT_EPOCH   = 534
BSTAR          = .16077E-2
MEAN_MOTION_DOT = .64512E-3
MEAN_MOTION_DDOT = 0

CCSDS_OMM_VERS = 2.0
CREATION_DATE  = 
ORIGINATOR     = 

OBJECT_NAME    = STARLINK-35586
OBJECT_ID      = 2025-240P
CENTER_NAME    = EARTH
REF_FRAME      = TEME
TIME_SYSTEM    = UTC
MEAN_ELEMENT_THEORY = SGP/SGP4

EPOCH          = 2025-11-21T01:45:28.037952
MEAN_MOTION    = 15.49340751
ECCENTRICITY   = .0001169
INCLINATION    = 53.1592
RA_OF_ASC_NODE = 208.3917
ARG_OF_PERICENTER = 84.0238
MEAN_ANOMALY   = 276.0904

EPHEMERIS_TYPE = 0
CLASSIFICATION_TYPE = U
NORAD_CAT_ID   = 66159
ELEMENT_SET_NO = 999
REV_AT_EPOCH   = 534
BSTAR          = .1418E-2
MEAN_MOTION_DOT = .7931E-3
MEAN_MOTION_DDOT = 0

CCSDS_OMM_VERS = 2.0
CREATION_DATE  = 
ORIGINATOR     = 

OBJECT_NAME    = STARLINK-35636
OBJECT_ID      = 2025-240Q
CENTER_NAME    = EARTH
REF_FRAME      = TEME
TIME_SYSTEM    = UTC
MEAN_ELEMENT_THEORY = SGP/SGP4

EPOCH          = 2025-11-21T02:26:20.399136
MEAN_MOTION    = 15.39640891
ECCENTRICITY   = .0001257
INCLINATION    = 53.1590
RA_OF_ASC_NODE = 208.5701
ARG_OF_PERICENTER = 94.6393
MEAN_ANOMALY   = 265.4755

EPHEMERIS_TYPE = 0
CLASSIFICATION_TYPE = U
NORAD_CAT_ID   = 66160
ELEMENT_SET_NO = 999
REV_AT_EPOCH   = 534
BSTAR          = .14619E-2
MEAN_MOTION_DOT = .58565E-3
MEAN_MOTION_DDOT = 0

CCSDS_OMM_VERS = 2.0
CREATION_DATE  = 
ORIGINATOR     = 

OBJECT_NAME    = STARLINK-35635
OBJECT_ID      = 2025-240R
CENTER_NAME    = EARTH
REF_FRAME      = TEME
TIME_SYSTEM    = UTC
MEAN_ELEMENT_THEORY = SGP/SGP4

EPOCH          = 2025-11-20T23:26:04.318368
MEAN_MOTION    = 15.39637357
ECCENTRICITY   = .0001163
INCLINATION    = 53.1588
RA_OF_ASC_NODE = 209.2108
ARG_OF_PERICENTER = 98.1890
MEAN_ANOMALY   = 261.9246

EPHEMERIS_TYPE = 0
CLASSIFICATION_TYPE = U
NORAD_CAT_ID   = 66161
ELEMENT_SET_NO = 999
REV_AT_EPOCH   = 532
BSTAR          = .8399E-3
MEAN_MOTION_DOT = .33362E-3
MEAN_MOTION_DDOT = 0

CCSDS_OMM_VERS = 2.0
CREATION_DATE  = 
ORIGINATOR     = 

OBJECT_NAME    = STARLINK-35633
OBJECT_ID      = 2025-240S
CENTER_NAME    = EARTH
REF_FRAME      = TEME
TIME_SYSTEM    = UTC
MEAN_ELEMENT_THEORY = SGP/SGP4

EPOCH          = 2025-11-21T00:59:42.304704
MEAN_MOTION    = 15.49327880
ECCENTRICITY   = .0000884
INCLINATION    = 53.1592
RA_OF_ASC_NODE = 208.1862
ARG_OF_PERICENTER = 87.5865
MEAN_ANOMALY   = 272.5245

EPHEMERIS_TYPE = 0
CLASSIFICATION_TYPE = U
NORAD_CAT_ID   = 66162
ELEMENT_SET_NO = 999
REV_AT_EPOCH   = 534
BSTAR          = .54026E-3
MEAN_MOTION_DOT = .29733E-3
MEAN_MOTION_DDOT = 0

CCSDS_OMM_VERS = 2.0
CREATION_DATE  = 
ORIGINATOR     = 

OBJECT_NAME    = STARLINK-35607
OBJECT_ID      = 2025-240T
CENTER_NAME    = EARTH
REF_FRAME      = TEME
TIME_SYSTEM    = UTC
MEAN_ELEMENT_THEORY = SGP/SGP4

EPOCH          = 2025-11-21T00:59:12.584832
MEAN_MOTION    = 15.49340842
ECCENTRICITY   = .0001019
INCLINATION    = 53.1594
RA_OF_ASC_NODE = 208.1852
ARG_OF_PERICENTER = 108.3280
MEAN_ANOMALY   = 251.7840

EPHEMERIS_TYPE = 0
CLASSIFICATION_TYPE = U
NORAD_CAT_ID   = 66163
ELEMENT_SET_NO = 999
REV_AT_EPOCH   = 534
BSTAR          = .11595E-2
MEAN_MOTION_DOT = .64646E-3
MEAN_MOTION_DDOT = 0

CCSDS_OMM_VERS = 2.0
CREATION_DATE  = 
ORIGINATOR     = 

OBJECT_NAME    = STARLINK-35614
OBJECT_ID      = 2025-240U
CENTER_NAME    = EARTH
REF_FRAME      = TEME
TIME_SYSTEM    = UTC
MEAN_ELEMENT_THEORY = SGP/SGP4

EPOCH          = 2025-11-21T02:31:06.719232
MEAN_MOTION    = 15.49337829
ECCENTRICITY   = .0001185
INCLINATION    = 53.1591
RA_OF_ASC_NODE = 207.8709
ARG_OF_PERICENTER = 81.6004
MEAN_ANOMALY   = 278.5139

EPHEMERIS_TYPE = 0
CLASSIFICATION_TYPE = U
NORAD_CAT_ID   = 66164
ELEMENT_SET_NO = 999
REV_AT_EPOCH   = 535
BSTAR          = .60105E-3
MEAN_MOTION_DOT = .33155E-3
MEAN_MOTION_DDOT = 0

CCSDS_OMM_VERS = 2.0
CREATION_DATE  = 
ORIGINATOR     = 

OBJECT_NAME    = STARLINK-35575
OBJECT_ID      = 2025-240V
CENTER_NAME    = EARTH
REF_FRAME      = TEME
TIME_SYSTEM    = UTC
MEAN_ELEMENT_THEORY = SGP/SGP4

EPOCH          = 2025-11-21T00:58:42.877920
MEAN_MOTION    = 15.49353278
ECCENTRICITY   = .0001127
INCLINATION    = 53.1594
RA_OF_ASC_NODE = 208.1816
ARG_OF_PERICENTER = 92.8759
MEAN_ANOMALY   = 267.2379

EPHEMERIS_TYPE = 0
CLASSIFICATION_TYPE = U
NORAD_CAT_ID   = 66165
ELEMENT_SET_NO = 999
REV_AT_EPOCH   = 534
BSTAR          = .90209E-3
MEAN_MOTION_DOT = .50123E-3
MEAN_MOTION_DDOT = 0

CCSDS_OMM_VERS = 2.0
CREATION_DATE  = 
ORIGINATOR     = 

OBJECT_NAME    = STARLINK-35624
OBJECT_ID      = 2025-240W
CENTER_NAME    = EARTH
REF_FRAME      = TEME
TIME_SYSTEM    = UTC
MEAN_ELEMENT_THEORY = SGP/SGP4

EPOCH          = 2025-11-21T02:30:07.472160
MEAN_MOTION    = 15.49369078
ECCENTRICITY   = .000081
INCLINATION    = 53.1596
RA_OF_ASC_NODE = 207.8675
ARG_OF_PERICENTER = 108.7179
MEAN_ANOMALY   = 251.3918

EPHEMERIS_TYPE = 0
CLASSIFICATION_TYPE = U
NORAD_CAT_ID   = 66166
ELEMENT_SET_NO = 999
REV_AT_EPOCH   = 535
BSTAR          = .11724E-2
MEAN_MOTION_DOT = .65444E-3
MEAN_MOTION_DDOT = 0

